GSAT0101 (PRN E11)      
1 37846U 11060A   20256.35324626 -.00000041  00000-0  00000-0 0  9998
2 37846  56.6842  38.8981 0001331  40.8434 319.1763  1.70475388 55259
GSAT0102 (PRN E12)      
1 37847U 11060B   20254.51952547 -.00000045  00000-0  00000+0 0  9997
2 37847  56.6845  38.9477 0001802 318.9143  41.8232  1.70475588 55356
GSAT0103 (PRN E19)      
1 38857U 12055A   20255.22208342  .00000001  00000-0  00000+0 0  9991
2 38857  54.9897 159.4218 0002739 273.5977  86.4144  1.70473852 49272
GSAT0104 (PRN E20)      
1 38858U 12055B   20255.15646713  .00000001  00000-0  00000+0 0  9992
2 38858  54.9903 159.4231 0001663 290.9129  69.1127  1.70473818 49229
GSAT0201 (PRN E18)      
1 40128U 14050A   20254.02443359 -.00000096  00000-0  00000+0 0  9993
2 40128  50.5566 358.0013 1660278 102.1544 276.8608  1.85519380 41182
GSAT0202 (PRN E14)      
1 40129U 14050B   20255.36584767 -.00000090  00000-0  00000-0 0  9996
2 40129  50.5918 356.9876 1657970 103.0154 275.9464  1.85520033 41402
GSAT0203 (PRN E26)      
1 40544U 15017A   20256.13433769 -.00000042  00000-0  00000-0 0  9999
2 40544  56.4777  39.0260 0003096 217.7680 142.2206  1.70474989 33994
GSAT0204 (PRN E22)      
1 40545U 15017B   20254.74221274 -.00000044  00000-0  00000+0 0  9992
2 40545  56.4834  39.0805 0003144 169.1103 190.9073  1.70475300 33976
GSAT0205 (PRN E24)      
1 40889U 15045A   20254.98453018  .00000037  00000-0  00000+0 0  9994
2 40889  56.0874 279.7456 0003141 332.6397  27.4020  1.70475209 31120
GSAT0206 (PRN E30)      
1 40890U 15045B   20255.79067130  .00000041  00000-0  00000+0 0  9997
2 40890  56.0859 279.7198 0002597 297.8257  62.2086  1.70475214 31168
GSAT0209 (PRN E09)      
1 41174U 15079A   20253.61752521  .00000003  00000-0  00000-0 0  9993
2 41174  55.0042 159.1643 0004383 321.7804  38.2350  1.70472886 29035
GSAT0208 (PRN E08)      
1 41175U 15079B   20253.83726162  .00000002  00000-0  00000+0 0  9998
2 41175  55.0025 159.1576 0003596 325.3211  34.7016  1.70472914 29457
GSAT0211 (PRN E02)      
1 41549U 16030A   20253.95876692  .00000032  00000-0  00000-0 0  9992
2 41549  56.2303 279.6354 0004512 287.5131  72.4927  1.70475046 26765
GSAT0210 (PRN E01)      
1 41550U 16030B   20254.83824670  .00000037  00000-0  00000+0 0  9995
2 41550  56.2289 279.6129 0004791 263.6141  96.3891  1.70474983 26758
GSAT0207 (PRN E07)      
1 41859U 16069A   20255.08353496  .00000001  00000-0  00000-0 0  9992
2 41859  54.6620 159.4653 0003979 309.0236  50.9843  1.70472784 23673
GSAT0212 (PRN E03)      
1 41860U 16069B   20256.11015369 -.00000001  00000-0  00000+0 0  9993
2 41860  54.6608 159.4355 0003416 336.7200  23.3071  1.70472797 23787
GSAT0213 (PRN E04)      
1 41861U 16069C   20255.88934834 -.00000000  00000-0  00000+0 0  9993
2 41861  54.6627 159.4459 0002966 285.3625  74.6473  1.70472943 23781
GSAT0214 (PRN E05)      
1 41862U 16069D   20256.03639350 -.00000001  00000-0  00000-0 0  9999
2 41862  54.6585 159.4376 0002273 296.6423  63.3770  1.70472663 23778
GSAT0215 (PRN E21)      
1 43055U 17079A   20255.35307806  .00000040  00000-0  00000+0 0  9990
2 43055  56.2037 279.4394 0004229 258.2317 101.7799  1.70474138 17103
GSAT0216 (PRN E25)      
1 43056U 17079B   20256.23236636  .00000043  00000-0  00000-0 0  9995
2 43056  56.2035 279.4150 0006040 263.6877  96.3051  1.70474253 17137
GSAT0217 (PRN E27)      
1 43057U 17079C   20254.69266759  .00000036  00000-0  00000-0 0  9995
2 43057  56.2024 279.4579 0005392 271.5714  88.4239  1.70474303 17099
GSAT0218 (PRN E31)      
1 43058U 17079D   20255.49925996  .00000040  00000-0  00000-0 0  9995
2 43058  56.2023 279.4330 0006523 261.3431  98.6425  1.70474216 17132
GSAT0221 (PRN E15)      
1 43564U 18060A   20255.39884348 -.00000043  00000-0  00000+0 0  9995
2 43564  56.8641  38.6959 0002970 247.1969 112.7821  1.70476067 13295
GSAT0222 (PRN E33)      
1 43565U 18060B   20256.20527572 -.00000042  00000-0  00000-0 0  9990
2 43565  56.8669  38.6735 0002469 255.9851 103.9972  1.70476069 13345
GSAT0219 (PRN E36)      
1 43566U 18060C   20255.25243579 -.00000043  00000-0  00000-0 0  9998
2 43566  56.8666  38.7011 0002343 244.6211 115.3651  1.70475992 13308
GSAT0220 (PRN E13)      
1 43567U 18060D   20256.05888931 -.00000042  00000-0  00000-0 0  9994
2 43567  56.8671  38.6802 0002476 248.0902 111.8935  1.70475963 13308
